{
  "type": "FeatureCollection",
  "features": [
    {
      "type": "Feature",
      "properties": {
        "norad_id": 41556,
        "name": "ZIYUAN 3-2 (ZY 3-2)",
        "group": "resource",
        "lat": -44.93728367020327,
        "lon": 58.246086486124355,
        "alt_km": 501.0625135647906,
        "timestamp": "2025-12-02T10:50:46.930584+00:00",
        "meta_object_name": "ZIYUAN 3-2 (ZY 3-2)",
        "meta_object_id": "2016-033A",
        "meta_epoch": "2025-12-02T04:43:50.793888",
        "meta_mean_motion": 15.21261278,
        "meta_eccentricity": 0.0012437,
        "meta_inclination": 97.4061,
        "meta_ra_of_asc_node": 50.5379,
        "meta_arg_of_pericenter": 290.315,
        "meta_mean_anomaly": 69.6749,
        "meta_ephemeris_type": 0,
        "meta_classification_type": "U",
        "meta_norad_cat_id": 41556,
        "meta_element_set_no": 999,
        "meta_rev_at_epoch": 52803,
        "meta_bstar": 0.00039274,
        "meta_mean_motion_dot": 8.727e-05,
        "meta_mean_motion_ddot": 0,
        "tle_line1": "1 41556U 16033A   25336.19711567  .00008727  00000+0  39274-3 0  9991",
        "tle_line2": "2 41556  97.4061  50.5379 0012437 290.3150  69.6749 15.21261278528030"
      },
      "geometry": {
        "type": "Point",
        "coordinates": [
          58.246086486124355,
          -44.93728367020327
        ]
      }
    },
    {
      "type": "Feature",
      "properties": {
        "norad_id": 41599,
        "name": "CARTOSAT-2C",
        "group": "resource",
        "lat": -21.341299781005873,
        "lon": 36.749964688509365,
        "alt_km": 517.3522212138732,
        "timestamp": "2025-12-02T10:50:46.930594+00:00",
        "meta_object_name": "CARTOSAT-2C",
        "meta_object_id": "2016-040A",
        "meta_epoch": "2025-12-02T04:37:06.471264",
        "meta_mean_motion": 15.19343909,
        "meta_eccentricity": 0.001138,
        "meta_inclination": 97.4783,
        "meta_ra_of_asc_node": 33.5511,
        "meta_arg_of_pericenter": 101.4555,
        "meta_mean_anomaly": 258.7958,
        "meta_ephemeris_type": 0,
        "meta_classification_type": "U",
        "meta_norad_cat_id": 41599,
        "meta_element_set_no": 999,
        "meta_rev_at_epoch": 52380,
        "meta_bstar": 2.8445e-05,
        "meta_mean_motion_dot": 5.33e-06,
        "meta_mean_motion_ddot": 0,
        "tle_line1": "1 41599U 16040A   25336.19243601  .00000533  00000+0  28445-4 0  9991",
        "tle_line2": "2 41599  97.4783  33.5511 0011380 101.4555 258.7958 15.19343909523806"
      },
      "geometry": {
        "type": "Point",
        "coordinates": [
          36.749964688509365,
          -21.341299781005873
        ]
      }
    },
    {
      "type": "Feature",
      "properties": {
        "norad_id": 41601,
        "name": "SKYSAT-C1",
        "group": "resource",
        "lat": -81.46041260393964,
        "lon": 139.31421422936833,
        "alt_km": 478.01276681713443,
        "timestamp": "2025-12-02T10:50:46.930605+00:00",
        "meta_object_name": "SKYSAT-C1",
        "meta_object_id": "2016-040C",
        "meta_epoch": "2025-12-02T01:51:22.944096",
        "meta_mean_motion": 15.32287703,
        "meta_eccentricity": 0.0003413,
        "meta_inclination": 96.9847,
        "meta_ra_of_asc_node": 13.6943,
        "meta_arg_of_pericenter": 41.9438,
        "meta_mean_anomaly": 318.2066,
        "meta_ephemeris_type": 0,
        "meta_classification_type": "U",
        "meta_norad_cat_id": 41601,
        "meta_element_set_no": 999,
        "meta_rev_at_epoch": 52764,
        "meta_bstar": 0.00034359,
        "meta_mean_motion_dot": 0.00010645,
        "meta_mean_motion_ddot": 0,
        "tle_line1": "1 41601U 16040C   25336.07734889  .00010645  00000+0  34359-3 0  9990",
        "tle_line2": "2 41601  96.9847  13.6943 0003413  41.9438 318.2066 15.32287703527641"
      },
      "geometry": {
        "type": "Point",
        "coordinates": [
          139.31421422936833,
          -81.46041260393964
        ]
      }
    },
    {
      "type": "Feature",
      "properties": {
        "norad_id": 41603,
        "name": "LAPAN-A3",
        "group": "resource",
        "lat": 80.83975406093006,
        "lon": -76.66078470920041,
        "alt_km": 461.92657887213045,
        "timestamp": "2025-12-02T10:50:46.930615+00:00",
        "meta_object_name": "LAPAN-A3",
        "meta_object_id": "2016-040E",
        "meta_epoch": "2025-12-02T05:46:33.278880",
        "meta_mean_motion": 15.31421673,
        "meta_eccentricity": 0.0010981,
        "meta_inclination": 97.1424,
        "meta_ra_of_asc_node": 334.1806,
        "meta_arg_of_pericenter": 12.2511,
        "meta_mean_anomaly": 347.8996,
        "meta_ephemeris_type": 0,
        "meta_classification_type": "U",
        "meta_norad_cat_id": 41603,
        "meta_element_set_no": 999,
        "meta_rev_at_epoch": 52465,
        "meta_bstar": 0.0001589,
        "meta_mean_motion_dot": 4.755e-05,
        "meta_mean_motion_ddot": 0,
        "tle_line1": "1 41603U 16040E   25336.24066295  .00004755  00000+0  15890-3 0  9994",
        "tle_line2": "2 41603  97.1424 334.1806 0010981  12.2511 347.8996 15.31421673524650"
      },
      "geometry": {
        "type": "Point",
        "coordinates": [
          -76.66078470920041,
          80.83975406093006
        ]
      }
    },
    {
      "type": "Feature",
      "properties": {
        "norad_id": 41604,
        "name": "BIROS",
        "group": "resource",
        "lat": -6.8409613053989204,
        "lon": 8.357861324572738,
        "alt_km": 320.56645774506796,
        "timestamp": "2025-12-02T10:50:46.930625+00:00",
        "meta_object_name": "BIROS",
        "meta_object_id": "2016-040F",
        "meta_epoch": "2025-12-02T01:47:12.309792",
        "meta_mean_motion": 15.85419882,
        "meta_eccentricity": 0.0002524,
        "meta_inclination": 97.0713,
        "meta_ra_of_asc_node": 7.1141,
        "meta_arg_of_pericenter": 176.7275,
        "meta_mean_anomaly": 183.4013,
        "meta_ephemeris_type": 0,
        "meta_classification_type": "U",
        "meta_norad_cat_id": 41604,
        "meta_element_set_no": 999,
        "meta_rev_at_epoch": 52703,
        "meta_bstar": 0.00063106,
        "meta_mean_motion_dot": 0.00152369,
        "meta_mean_motion_ddot": 0,
        "tle_line1": "1 41604U 16040F   25336.07444803  .00152369  00000+0  63106-3 0  9999",
        "tle_line2": "2 41604  97.0713   7.1141 0002524 176.7275 183.4013 15.85419882527034"
      },
      "geometry": {
        "type": "Point",
        "coordinates": [
          8.357861324572738,
          -6.8409613053989204
        ]
      }
    },
    {
      "type": "Feature",
      "properties": {
        "norad_id": 41727,
        "name": "GAOFEN-3",
        "group": "resource",
        "lat": -75.36897330938775,
        "lon": 16.687824449200733,
        "alt_km": 759.4330830140998,
        "timestamp": "2025-12-02T10:50:46.930635+00:00",
        "meta_object_name": "GAOFEN-3",
        "meta_object_id": "2016-049A",
        "meta_epoch": "2025-12-02T04:32:50.292672",
        "meta_mean_motion": 14.42230472,
        "meta_eccentricity": 0.0001536,
        "meta_inclination": 98.4042,
        "meta_ra_of_asc_node": 341.9366,
        "meta_arg_of_pericenter": 76.9529,
        "meta_mean_anomaly": 283.1832,
        "meta_ephemeris_type": 0,
        "meta_classification_type": "U",
        "meta_norad_cat_id": 41727,
        "meta_element_set_no": 999,
        "meta_rev_at_epoch": 49025,
        "meta_bstar": 4.742e-05,
        "meta_mean_motion_dot": 1.13e-06,
        "meta_mean_motion_ddot": 0,
        "tle_line1": "1 41727U 16049A   25336.18947098  .00000113  00000+0  47420-4 0  9991",
        "tle_line2": "2 41727  98.4042 341.9366 0001536  76.9529 283.1832 14.42230472490251"
      },
      "geometry": {
        "type": "Point",
        "coordinates": [
          16.687824449200733,
          -75.36897330938775
        ]
      }
    },
    {
      "type": "Feature",
      "properties": {
        "norad_id": 41771,
        "name": "SKYSAT-C4",
        "group": "resource",
        "lat": -26.001775030977615,
        "lon": 178.73784122110857,
        "alt_km": 446.66895880677566,
        "timestamp": "2025-12-02T10:50:46.930645+00:00",
        "meta_object_name": "SKYSAT-C4",
        "meta_object_id": "2016-058B",
        "meta_epoch": "2025-12-02T02:10:01.106112",
        "meta_mean_motion": 15.41785331,
        "meta_eccentricity": 6.74e-05,
        "meta_inclination": 96.9392,
        "meta_ra_of_asc_node": 1.7997,
        "meta_arg_of_pericenter": 108.5071,
        "meta_mean_anomaly": 251.625,
        "meta_ephemeris_type": 0,
        "meta_classification_type": "U",
        "meta_norad_cat_id": 41771,
        "meta_element_set_no": 999,
        "meta_rev_at_epoch": 51503,
        "meta_bstar": 0.00040333,
        "meta_mean_motion_dot": 0.00017006,
        "meta_mean_motion_ddot": 0,
        "tle_line1": "1 41771U 16058B   25336.09029058  .00017006  00000+0  40333-3 0  9991",
        "tle_line2": "2 41771  96.9392   1.7997 0000674 108.5071 251.6250 15.41785331515035"
      },
      "geometry": {
        "type": "Point",
        "coordinates": [
          178.73784122110857,
          -26.001775030977615
        ]
      }
    }
  ]
}